{
  "norad_id": 37790,
  "name": "NIGERIASAT-X",
  "history": [
    {
      "epoch": "2026-03-28T20:36:56.620224Z",
      "apogee_km": 698.5358816316038,
      "perigee_km": 682.6295657605551,
      "latitude_deg": 4.636302630837391e-05,
      "longitude_deg": -59.37211772624035,
      "height_km": 699.366691700288,
      "semi_major_axis_km": 7068.719723696079,
      "eccentricity": 0.00112512,
      "inclination_deg": 97.8506,
      "raan_deg": 76.1372,
      "arg_perigee_deg": 223.3975,
      "mean_anomaly_deg": 136.6342,
      "mean_motion_rev_day": 14.60802888
    },
    {
      "epoch": "2026-03-29T04:50:07.137600Z",
      "apogee_km": 698.5479750625937,
      "perigee_km": 682.6122591937392,
      "latitude_deg": 4.492578937402405e-05,
      "longitude_deg": 177.3213936272868,
      "height_km": 699.4868305115104,
      "semi_major_axis_km": 7068.717117128166,
      "eccentricity": 0.0011272,
      "inclination_deg": 97.8508,
      "raan_deg": 76.4621,
      "arg_perigee_deg": 222.2111,
      "mean_anomaly_deg": 137.8224,
      "mean_motion_rev_day": 14.60803696
    },
    {
      "epoch": "2026-03-30T05:29:38.687136Z",
      "apogee_km": 698.5868929353328,
      "perigee_km": 682.5663603718858,
      "latitude_deg": -3.258988327029701e-05,
      "longitude_deg": 167.4017490855823,
      "height_km": 699.8319224896754,
      "semi_major_axis_km": 7068.713626653609,
      "eccentricity": 0.0011332,
      "inclination_deg": 97.8508,
      "raan_deg": 77.4366,
      "arg_perigee_deg": 218.7131,
      "mean_anomaly_deg": 141.3259,
      "mean_motion_rev_day": 14.60804778
    },
    {
      "epoch": "2026-03-30T12:04:11.077536Z",
      "apogee_km": 698.5996387665045,
      "perigee_km": 682.5509757183872,
      "latitude_deg": 3.684267922168949e-05,
      "longitude_deg": 68.7565269552599,
      "height_km": 699.9227412903963,
      "semi_major_axis_km": 7068.712307242446,
      "eccentricity": 0.00113519,
      "inclination_deg": 97.8509,
      "raan_deg": 77.6964,
      "arg_perigee_deg": 217.7763,
      "mean_anomaly_deg": 142.2643,
      "mean_motion_rev_day": 14.60805187
    },
    {
      "epoch": "2026-03-30T21:55:59.661408Z",
      "apogee_km": 698.616688225713,
      "perigee_km": 682.5305648271406,
      "latitude_deg": -3.9018600309321104e-05,
      "longitude_deg": -79.21117433275998,
      "height_km": 700.0504929193005,
      "semi_major_axis_km": 7068.7106265264265,
      "eccentricity": 0.00113784,
      "inclination_deg": 97.8509,
      "raan_deg": 78.0862,
      "arg_perigee_deg": 216.4217,
      "mean_anomaly_deg": 143.6211,
      "mean_motion_rev_day": 14.60805708
    },
    {
      "epoch": "2026-03-31T20:56:53.002752Z",
      "apogee_km": 698.6552522303064,
      "perigee_km": 682.4848779482081,
      "latitude_deg": 3.576671558570719e-05,
      "longitude_deg": -64.46912381465866,
      "height_km": 700.3429748350284,
      "semi_major_axis_km": 7068.707065089257,
      "eccentricity": 0.0011438,
      "inclination_deg": 97.851,
      "raan_deg": 78.9957,
      "arg_perigee_deg": 213.1628,
      "mean_anomaly_deg": 146.8858,
      "mean_motion_rev_day": 14.60806812
    },
    {
      "epoch": "2026-04-01T16:40:30.116064Z",
      "apogee_km": 698.6899716023936,
      "perigee_km": 682.4460874445485,
      "latitude_deg": 1.4911963509708525e-05,
      "longitude_deg": -0.404316832591094,
      "height_km": 700.5828716994613,
      "semi_major_axis_km": 7068.70502952347,
      "eccentricity": 0.001149,
      "inclination_deg": 97.8511,
      "raan_deg": 79.7753,
      "arg_perigee_deg": 210.3281,
      "mean_anomaly_deg": 149.7257,
      "mean_motion_rev_day": 14.60807443
    },
    {
      "epoch": "2026-04-02T17:20:01.407264Z",
      "apogee_km": 698.7379490413796,
      "perigee_km": 682.3894580542155,
      "latitude_deg": 3.082330629974687e-05,
      "longitude_deg": -10.322894630136597,
      "height_km": 700.8619952446556,
      "semi_major_axis_km": 7068.700703547797,
      "eccentricity": 0.0011564,
      "inclination_deg": 97.8512,
      "raan_deg": 80.7498,
      "arg_perigee_deg": 206.8307,
      "mean_anomaly_deg": 153.2298,
      "mean_motion_rev_day": 14.60808784
    },
    {
      "epoch": "2026-04-02T22:15:55.608480Z",
      "apogee_km": 698.7444518825369,
      "perigee_km": 682.375329119267,
      "latitude_deg": -6.478410999200934e-05,
      "longitude_deg": -84.3063584225144,
      "height_km": 700.909446054449,
      "semi_major_axis_km": 7068.696890500902,
      "eccentricity": 0.00115786,
      "inclination_deg": 97.8512,
      "raan_deg": 80.9447,
      "arg_perigee_deg": 206.1698,
      "mean_anomaly_deg": 153.8919,
      "mean_motion_rev_day": 14.60809966
    },
    {
      "epoch": "2026-04-03T21:16:48.694944Z",
      "apogee_km": 698.7867626984025,
      "perigee_km": 682.3223663063627,
      "latitude_deg": -1.0254177828174951e-05,
      "longitude_deg": -69.56314156005357,
      "height_km": 701.1375819707225,
      "semi_major_axis_km": 7068.691564502382,
      "eccentricity": 0.0011646,
      "inclination_deg": 97.8514,
      "raan_deg": 81.8543,
      "arg_perigee_deg": 202.9704,
      "mean_anomaly_deg": 157.0978,
      "mean_motion_rev_day": 14.60811617
    }
  ]
}